[{"OBJECT_NAME":"TIANMU-1 20","OBJECT_ID":"2023-208B","EPOCH":"2026-03-09T21:50:45.859200","MEAN_MOTION":15.31029249,"ECCENTRICITY":0.00061925,"INCLINATION":97.4323,"RA_OF_ASC_NODE":185.4313,"ARG_OF_PERICENTER":324.1763,"MEAN_ANOMALY":35.9062,"EPHEMERIS_TYPE":0,"CLASSIFICATION_TYPE":"U","NORAD_CAT_ID":58661,"ELEMENT_SET_NO":999,"REV_AT_EPOCH":12222,"BSTAR":0.0003681641,"MEAN_MOTION_DOT":0.00010969,"MEAN_MOTION_DDOT":0},{"OBJECT_NAME":"STARLINK-34898","OBJECT_ID":"2025-224P","EPOCH":"2026-03-09T03:52:03.095616","MEAN_MOTION":15.30151728,"ECCENTRICITY":0.00010873,"INCLINATION":53.1612,"RA_OF_ASC_NODE":13.7808,"ARG_OF_PERICENTER":92.3455,"MEAN_ANOMALY":267.767,"EPHEMERIS_TYPE":0,"CLASSIFICATION_TYPE":"U","NORAD_CAT_ID":65895,"ELEMENT_SET_NO":999,"REV_AT_EPOCH":2479,"BSTAR":-0.00036309027,"MEAN_MOTION_DOT":-0.00011081,"MEAN_MOTION_DDOT":0}]
